COMMENT,ORIGINATOR,NORAD_CAT_ID,OBJECT_NAME,OBJECT_TYPE,CLASSIFICATION_TYPE,INTLDES,EPOCH,EPOCH_MICROSECONDS,MEAN_MOTION,ECCENTRICITY,INCLINATION,RA_OF_ASC_NODE,ARG_OF_PERICENTER,MEAN_ANOMALY,EPHEMERIS_TYPE,ELEMENT_SET_NO,REV_AT_EPOCH,BSTAR,MEAN_MOTION_DOT,MEAN_MOTION_DDOT,FILE,TLE_LINE0,TLE_LINE1,TLE_LINE2,OBJECT_ID,OBJECT_NUMBER,SEMIMAJOR_AXIS,PERIOD,APOGEE,PERIGEE,DECAYED,date
GENERATED VIA SPACETRACK.ORG API,18 SPCS,52183,SPACEBEE-133,PAYLOAD,U,22033AC,2023/3/21 4:27,915488,15.37091305,0.0007014,97.3537,163.3784,129.4948,230.6918,0,999,5390,0.0016331,0.00059633,0,3866916,0 SPACEBEE-133,1 52183U 22033AC  23080.18564717  .00059633  00000-0  16331-2 0  9993,2 52183  97.3537 163.3784 0007014 129.4948 230.6918 15.37091305 53906,2022-033AC,52183,6832.853,93.683,459.51,449.925,1,
GENERATED VIA SPACETRACK.ORG API,18 SPCS,52183,SPACEBEE-133,PAYLOAD,U,22033AC,2023/3/22 5:27,979424,15.37218576,0.0006999,97.3535,164.4206,125.8398,234.3498,0,999,5406,0.0016018,0.00058722,0,3867275,0 SPACEBEE-133,1 52183U 22033AC  23081.22721041  .00058722  00000-0  16018-2 0  9994,2 52183  97.3535 164.4206 0006999 125.8398 234.3498 15.37218576 54068,2022-033AC,52183,6832.476,93.676,459.123,449.559,1,
GENERATED VIA SPACETRACK.ORG API,18 SPCS,52183,SPACEBEE-133,PAYLOAD,U,22033AC,2023/3/22 19:30,577888,15.37292013,0.0006874,97.3531,165.0072,123.5392,236.651,0,999,5416,0.0016576,0.0006093,0,3868201,0 SPACEBEE-133,1 52183U 22033AC  23081.81305067  .00060930  00000-0  16576-2 0  9998,2 52183  97.3531 165.0072 0006874 123.5392 236.6510 15.37292013 54162,2022-033AC,52183,6832.258,93.671,458.82,449.427,1,
GENERATED VIA SPACETRACK.ORG API,18 SPCS,52183,SPACEBEE-133,PAYLOAD,U,22033AC,2023/3/23 11:08,414784,15.37369219,0.0006853,97.3527,165.6588,121.5677,238.6237,0,999,5425,0.0016896,0.00062273,0,3868451,0 SPACEBEE-133,1 52183U 22033AC  23082.46395156  .00062273  00000-0  16896-2 0  9995,2 52183  97.3527 165.6588 0006853 121.5677 238.6237 15.37369219 54257,2022-033AC,52183,6832.029,93.667,458.576,449.212,1,
GENERATED VIA SPACETRACK.ORG API,18 SPCS,52183,SPACEBEE-133,PAYLOAD,U,22033AC,2023/3/23 11:08,414784,15.37369219,0.0006853,97.3527,165.6588,121.5677,238.6237,0,999,5426,0.0016896,0.00062273,0,3868494,0 SPACEBEE-133,1 52183U 22033AC  23082.46395156  .00062273  00000-0  16896-2 0  9995,2 52183  97.3527 165.6588 0006853 121.5677 238.6237 15.37369219 54268,2022-033AC,52183,6832.029,93.667,458.576,449.212,1,
GENERATED VIA SPACETRACK.ORG API,18 SPCS,52183,SPACEBEE-133,PAYLOAD,U,22033AC,2023/3/23 18:56,140480,15.37418237,0.0006793,97.3525,165.9845,120.4008,239.7908,0,999,5431,0.0018007,0.00066514,0,3868816,0 SPACEBEE-133,1 52183U 22033AC  23082.78938820  .00066514  00000-0  18007-2 0  9999,2 52183  97.3525 165.9845 0006793 120.4008 239.7908 15.37418237 54312,2022-033AC,52183,6831.884,93.664,458.39,449.108,1,
GENERATED VIA SPACETRACK.ORG API,18 SPCS,52183,SPACEBEE-133,PAYLOAD,U,22033AC,2023/3/24 4:19,995392,15.37543226,0.0006734,97.3524,166.3751,118.8817,241.3105,0,999,5436,0.0061169,0.00231997,0,3869189,0 SPACEBEE-133,1 52183U 22033AC  23083.17989578  .00231997  00000-0  61169-2 0  9995,2 52183  97.3524 166.3751 0006734 118.8817 241.3105 15.37543226 54366,2022-033AC,52183,6831.514,93.656,457.979,448.778,1,
GENERATED VIA SPACETRACK.ORG API,18 SPCS,52183,SPACEBEE-133,PAYLOAD,U,22033AC,2023/3/24 4:19,995392,15.37543226,0.0006734,97.3524,166.3751,118.8817,241.3105,0,999,5437,0.0061169,0.00231997,0,3869846,0 SPACEBEE-133,1 52183U 22033AC  23083.17989578  .00231997  00000-0  61169-2 0  9995,2 52183  97.3524 166.3751 0006734 118.8817 241.3105 15.37543226 54377,2022-033AC,52183,6831.514,93.656,457.979,448.778,1,
GENERATED VIA SPACETRACK.ORG API,18 SPCS,52183,SPACEBEE-133,PAYLOAD,U,22033AC,2023/3/24 16:48,145376,15.37622933,0.0006757,97.3523,166.8968,116.8005,243.3931,0,999,5444,0.0027224,0.00101731,0,3869807,0 SPACEBEE-133,1 52183U 22033AC  23083.70053409  .00101731  00000-0  27224-2 0  9995,2 52183  97.3523 166.8968 0006757 116.8005 243.3931 15.37622933 54443,2022-033AC,52183,6831.278,93.651,457.759,448.527,1,
GENERATED VIA SPACETRACK.ORG API,18 SPCS,52183,SPACEBEE-133,PAYLOAD,U,22033AC,2023/3/24 18:22,855200,15.3763474,0.0006744,97.352,166.9616,116.6267,243.567,0,999,5446,0.0025934,0.00096882,0,3870109,0 SPACEBEE-133,1 52183U 22033AC  23083.76561175  .00096882  00000-0  25934-2 0  9991,2 52183  97.3520 166.9616 0006744 116.6267 243.5670 15.37634740 54468,2022-033AC,52183,6831.243,93.65,457.715,448.501,1,
GENERATED VIA SPACETRACK.ORG API,18 SPCS,52183,SPACEBEE-133,PAYLOAD,U,22033AC,2023/3/25 5:18,882208,15.37699638,0.0006799,97.352,167.4175,116.0236,244.171,0,999,5452,0.0019372,0.00072269,0,3870420,0 SPACEBEE-133,1 52183U 22033AC  23084.22114447  .00072269  00000-0  19372-2 0  9991,2 52183  97.3520 167.4175 0006799 116.0236 244.1710 15.37699638 54520,2022-033AC,52183,6831.051,93.646,457.56,448.271,1,
GENERATED VIA SPACETRACK.ORG API,18 SPCS,52183,SPACEBEE-133,PAYLOAD,U,22033AC,2023/3/25 19:21,678976,15.37772552,0.000669,97.3516,168.0043,113.9432,246.2514,0,999,5462,0.0017671,0.00066017,0,3871104,0 SPACEBEE-133,1 52183U 22033AC  23084.80680184  .00066017  00000-0  17671-2 0  9995,2 52183  97.3516 168.0043 0006690 113.9432 246.2514 15.37772552 54623,2022-033AC,52183,6830.835,93.642,457.269,448.13,1,
GENERATED VIA SPACETRACK.ORG API,18 SPCS,52183,SPACEBEE-133,PAYLOAD,U,22033AC,2023/3/26 4:44,130272,15.37825504,0.0006672,97.3516,168.3949,112.9656,247.2293,0,999,5467,0.0017622,0.00065945,0,3871370,0 SPACEBEE-133,1 52183U 22033AC  23085.19722373  .00065945  00000-0  17622-2 0  9990,2 52183  97.3516 168.3949 0006672 112.9656 247.2293 15.37825504 54674,2022-033AC,52183,6830.678,93.639,457.1,447.985,1,
GENERATED VIA SPACETRACK.ORG API,18 SPCS,52183,SPACEBEE-133,PAYLOAD,U,22033AC,2023/3/26 18:47,963872,15.37891448,0.0006575,97.3517,168.9819,110.5554,249.6397,0,999,5477,0.0017166,0.0006436,0,3871964,0 SPACEBEE-133,1 52183U 22033AC  23085.78283523  .00064360  00000-0  17166-2 0  9997,2 52183  97.3517 168.9819 0006575 110.5554 249.6397 15.37891448 54772,2022-033AC,52183,6830.483,93.635,456.839,447.857,1,
GENERATED VIA SPACETRACK.ORG API,18 SPCS,52183,SPACEBEE-133,PAYLOAD,U,22033AC,2023/3/27 4:09,793792,15.37941326,0.000659,97.3516,169.3728,110.0298,250.1657,0,999,5482,0.0015622,0.00058615,0,3872236,0 SPACEBEE-133,1 52183U 22033AC  23086.17322678  .00058615  00000-0  15622-2 0  9997,2 52183  97.3516 169.3728 0006590 110.0298 250.1657 15.37941326 54825,2022-033AC,52183,6830.335,93.632,456.701,447.699,1,
GENERATED VIA SPACETRACK.ORG API,18 SPCS,52183,SPACEBEE-133,PAYLOAD,U,22033AC,2023/3/27 4:09,793792,15.37941326,0.000659,97.3516,169.3728,110.0298,250.1657,0,999,5483,0.0015622,0.00058615,0,3872569,0 SPACEBEE-133,1 52183U 22033AC  23086.17322678  .00058615  00000-0  15622-2 0  9997,2 52183  97.3516 169.3728 0006590 110.0298 250.1657 15.37941326 54836,2022-033AC,52183,6830.335,93.632,456.701,447.699,1,
GENERATED VIA SPACETRACK.ORG API,18 SPCS,52183,SPACEBEE-133,PAYLOAD,U,22033AC,2023/3/27 18:12,700512,15.38008265,0.000653,97.3517,169.9598,107.4564,252.7395,0,999,5492,0.0015701,0.00059042,0,3872915,0 SPACEBEE-133,1 52183U 22033AC  23086.75879283  .00059042  00000-0  15701-2 0  9993,2 52183  97.3517 169.9598 0006530 107.4564 252.7395 15.38008265 54922,2022-033AC,52183,6830.137,93.628,456.462,447.542,1,
GENERATED VIA SPACETRACK.ORG API,18 SPCS,52183,SPACEBEE-133,PAYLOAD,U,22033AC,2023/3/28 5:08,24800,15.38070348,0.0006499,97.3516,170.4157,106.544,253.6519,0,999,5498,0.0016069,0.00060561,0,3873216,0 SPACEBEE-133,1 52183U 22033AC  23087.21421325  .00060561  00000-0  16069-2 0  9991,2 52183  97.3516 170.4157 0006499 106.5440 253.6519 15.38070348 54981,2022-033AC,52183,6829.953,93.624,456.257,447.379,1,
GENERATED VIA SPACETRACK.ORG API,18 SPCS,52183,SPACEBEE-133,PAYLOAD,U,22033AC,2023/3/28 5:08,24800,15.38070348,0.0006499,97.3516,170.4157,106.544,253.6519,0,999,5499,0.0016069,0.00060561,0,3873565,0 SPACEBEE-133,1 52183U 22033AC  23087.21421325  .00060561  00000-0  16069-2 0  9991,2 52183  97.3516 170.4157 0006499 106.5440 253.6519 15.38070348 54992,2022-033AC,52183,6829.953,93.624,456.257,447.379,1,
GENERATED VIA SPACETRACK.ORG API,18 SPCS,52183,SPACEBEE-133,PAYLOAD,U,22033AC,2023/3/28 19:11,538944,15.38145916,0.0006354,97.3513,171.0026,104.0838,256.1113,0,999,5508,0.0017646,0.00066726,0,3873921,0 SPACEBEE-133,1 52183U 22033AC  23087.79972846  .00066726  00000-0  17646-2 0  9994,2 52183  97.3513 171.0026 0006354 104.0838 256.1113 15.38145916 55088,2022-033AC,52183,6829.729,93.619,455.934,447.255,1,
GENERATED VIA SPACETRACK.ORG API,18 SPCS,52183,SPACEBEE-133,PAYLOAD,U,22033AC,2023/3/29 4:33,706208,15.38204455,0.0006316,97.3514,171.3933,103.5642,256.6307,0,999,5513,0.0018481,0.0007005,0,3874201,0 SPACEBEE-133,1 52183U 22033AC  23088.19005447  .00070050  00000-0  18481-2 0  9996,2 52183  97.3514 171.3933 0006316 103.5642 256.6307 15.38204455 55134,2022-033AC,52183,6829.556,93.616,455.734,447.107,1,
GENERATED VIA SPACETRACK.ORG API,18 SPCS,52183,SPACEBEE-133,PAYLOAD,U,22033AC,2023/3/29 4:33,706208,15.38204455,0.0006316,97.3514,171.3933,103.5642,256.6307,0,999,5514,0.0018481,0.0007005,0,3874492,0 SPACEBEE-133,1 52183U 22033AC  23088.19005447  .00070050  00000-0  18481-2 0  9996,2 52183  97.3514 171.3933 0006316 103.5642 256.6307 15.38204455 55145,2022-033AC,52183,6829.556,93.616,455.734,447.107,1,
GENERATED VIA SPACETRACK.ORG API,18 SPCS,52183,SPACEBEE-133,PAYLOAD,U,22033AC,2023/3/29 18:36,738784,15.38287222,0.000628,97.3513,171.9802,100.9169,259.2783,0,999,5523,0.0019071,0.00072506,0,3874790,0 SPACEBEE-133,1 52183U 22033AC  23088.77551781  .00072506  00000-0  19071-2 0  9991,2 52183  97.3513 171.9802 0006280 100.9169 259.2783 15.38287222 55230,2022-033AC,52183,6829.311,93.611,455.465,446.887,1,
